OBJECT_NAME,OBJECT_ID,EPOCH,MEAN_MOTION,ECCENTRICITY,INCLINATION,RA_OF_ASC_NODE,ARG_OF_PERICENTER,MEAN_ANOMALY,EPHEMERIS_TYPE,CLASSIFICATION_TYPE,NORAD_CAT_ID,ELEMENT_SET_NO,REV_AT_EPOCH,BSTAR,MEAN_MOTION_DOT,MEAN_MOTION_DDOT
ASTRA 1N,2011-041A,2026-06-14T08:03:53.638272,1.00270145,.0005986,0.0916,43.3348,50.4175,309.0600,0,U,37775,999,4449,0,.127E-5,0
BSAT-3C (JCSAT-110R),2011-041B,2026-06-14T11:55:09.478272,1.00271600,.0000039,0.0165,3.4776,308.3776,239.6892,0,U,37776,999,5044,0,-.343E-5,0
PAKSAT-1R,2011-042A,2026-06-14T04:44:02.113152,1.00277046,.0002968,0.6811,84.6195,349.5821,297.4021,0,U,37779,999,5444,0,.162E-5,0
SES-2,2011-049A,2026-06-14T10:58:55.775136,1.00270793,.0002619,0.0576,104.1318,338.6484,257.7125,0,U,37809,999,5393,0,-.188E-5,0
ARABSAT-5C,2011-049B,2026-06-14T08:04:08.613120,1.00270494,.0003378,0.0499,10.4800,90.3403,302.8426,0,U,37810,999,5400,0,.131E-5,0
EUTELSAT 7 WEST A,2011-051A,2026-06-14T09:38:58.487712,1.00271095,.000401,0.0624,8.3641,87.1359,304.6244,0,U,37816,999,5384,0,-.53E-6,0
QUETZSAT 1,2011-054A,2026-06-14T11:01:47.998848,1.00270976,.00025,0.0169,26.5999,58.7811,265.8351,0,U,37826,999,4984,0,-.234E-5,0
INTELSAT 18 (IS-18),2011-056A,2026-06-14T10:32:25.207296,1.00273358,.0001647,0.0172,293.8107,143.5188,163.5143,0,U,37834,999,5378,0,.61E-6,0
EUTELSAT 16A,2011-057A,2026-06-14T08:03:01.221120,1.00273183,.0005965,0.0446,12.7853,73.5212,313.0773,0,U,37836,999,730,0,.112E-5,0
VIASAT-1,2011-059A,2026-06-14T09:08:16.431072,1.00269024,.0002031,0.0179,334.4225,112.6509,197.5716,0,U,37843,999,4729,0,-.15E-6,0
ASIASAT 7,2011-069A,2026-06-14T11:53:54.597984,1.00272955,.0001216,0.0242,68.9402,345.1941,132.6475,0,U,37933,999,4483,0,-.327E-5,0
BEIDOU-2 IGSO-5,2011-073A,2026-06-13T18:56:52.407744,1.00273385,.01138383,47.6849,271.5886,221.6054,144.8748,0,U,37948,999,5310,0,-.164E-5,0
LUCH-5A,2011-074B,2026-06-13T12:14:12.133824,1.00269799,.00021773,8.7444,73.8614,24.6507,153.8242,0,U,37951,999,5301,0,-.46E-6,0
NIGCOMSAT 1R,2011-077A,2026-06-14T06:27:54.418176,1.00273992,.0002347,0.0462,136.9866,210.1662,54.9104,0,U,38014,999,5292,0,.153E-5,0
WGS F4 (USA 233),2012-003A,2026-06-14T11:48:43.500096,1.00269000,.0000811,0.0239,9.9904,275.3742,243.0167,0,U,38070,999,4412,0,0,0
SES-4,2012-007A,2026-06-14T11:17:24.002880,1.00270368,.0002674,0.0234,29.3118,64.6568,316.1532,0,U,38087,999,5219,0,-.161E-5,0
BEIDOU-2 G5,2012-008A,2026-06-14T11:40:29.291232,1.00271091,.0009141,3.5657,69.7122,273.0876,153.7613,0,U,38091,999,5234,0,.62E-6,0
MUOS-1,2012-009A,2026-06-14T12:01:38.470944,1.00270257,.0058704,5.4708,47.1578,1.6424,294.4159,0,U,38093,999,5241,0,-.124E-5,0
INTELSAT 22 (IS-22),2012-011A,2026-06-14T13:18:31.430880,1.00271252,.0001592,0.0398,52.0363,46.2017,76.3269,0,U,38098,999,716,0,0,0
APSTAR-7,2012-013A,2026-06-14T11:45:36.299808,1.00271611,.000255,0.0220,1.1886,94.1199,60.3730,0,U,38107,999,5178,0,0,0
YAHSAT 1B,2012-016A,2026-06-14T11:37:22.090080,1.00270395,.0002354,0.0918,90.2423,11.6779,22.7946,0,U,38245,999,4558,0,.134E-5,0
AEHF-2 (USA 235),2012-019A,2026-06-14T01:03:02.668896,1.00270003,.00023816,6.6438,57.5122,16.4466,187.6027,0,U,38254,999,695,0,-.132E-5,0
JCSAT-13,2012-023A,2026-06-14T11:59:06.760320,1.00269807,.0002987,0.0176,359.2381,111.9091,95.4320,0,U,38331,999,5151,0,-.349E-5,0
VINASAT-2,2012-023B,2026-06-14T12:31:38.754912,1.00271658,.0002082,0.0161,8.4474,84.2123,129.9259,0,U,38332,999,4663,0,-.321E-5,0
NIMIQ 6,2012-026A,2026-06-14T10:57:48.383136,1.00270544,.000244,0.0222,298.1059,145.0172,252.9841,0,U,38342,999,5038,0,-.166E-5,0
ZHONGXING-2A,2012-028A,2026-06-14T10:09:03.104640,1.00271308,.0003789,1.4458,83.9232,44.7889,24.5229,0,U,38352,999,5127,0,-.286E-5,0
INTELSAT 19 (IS-19),2012-030A,2026-06-14T12:11:05.610048,1.00270945,.0002783,0.0173,339.3923,112.1310,160.0537,0,U,38356,999,5042,0,-.49E-6,0
ECHOSTAR 17,2012-035A,2026-06-14T12:09:38.892096,1.00271396,.0002072,0.0260,10.3375,74.1447,253.6369,0,U,38551,999,5103,0,0,0
METEOSAT-10 (MSG-3),2012-035B,2026-06-14T07:58:31.653120,1.00276282,.0001424,4.6648,61.0321,327.8422,353.7007,0,U,38552,999,5082,0,0,0
SES-5,2012-036A,2026-06-14T07:59:46.533408,1.00268156,.0001724,0.0491,313.1035,125.3552,309.0952,0,U,38652,999,4442,0,.41E-6,0
INTELSAT 20 (IS-20),2012-043A,2026-06-14T11:43:21.514080,1.00269404,.0001651,0.0033,60.8784,116.2799,329.9816,0,U,38740,999,5072,0,-.17E-6,0
HYLAS 2,2012-043B,2026-06-14T11:03:02.880000,1.00270303,.0002397,2.4202,81.0999,26.2660,248.5932,0,U,38741,999,5074,0,-.252E-5,0
