{"id":"37775","name":"ASTRA 1N","line1":"1 37775U 11041A   26165.33603748  .00000127  00000+0  00000+0 0  9998","line2":"2 37775   0.0916  43.3348 0005986  50.4175 309.0600  1.00270145 44491","kind":"satellite","owner":"Commercial GEO","orbitClass":"GEO"},{"id":"37776","name":"BSAT-3C (JCSAT-110R)","line1":"1 37776U 11041B   26165.49663748 -.00000343  00000+0  00000+0 0  9993","line2":"2 37776   0.0165   3.4776 0000039 308.3776 239.6892  1.00271600 50446","kind":"satellite","orbitClass":"GEO"},{"id":"37779","name":"PAKSAT-1R","line1":"1 37779U 11042A   26165.19724668  .00000162  00000+0  00000+0 0  9991","line2":"2 37779   0.6811  84.6195 0002968 349.5821 297.4021  1.00277046 54440","kind":"satellite","orbitClass":"GEO"},{"id":"37809","name":"SES-2","line1":"1 37809U 11049A   26165.45758999 -.00000188  00000+0  00000+0 0  9994","line2":"2 37809   0.0576 104.1318 0002619 338.6484 257.7125  1.00270793 53937","kind":"satellite","owner":"Commercial GEO","orbitClass":"GEO"},{"id":"37810","name":"ARABSAT-5C","line1":"1 37810U 11049B   26165.33621080  .00000131  00000+0  00000+0 0  9990","line2":"2 37810   0.0499  10.4800 0003378  90.3403 302.8426  1.00270494 54007","kind":"satellite","orbitClass":"GEO"},{"id":"37816","name":"EUTELSAT 7 WEST A","line1":"1 37816U 11051A   26165.40206583 -.00000053  00000+0  00000+0 0  9998","line2":"2 37816   0.0624   8.3641 0004010  87.1359 304.6244  1.00271095 53847","kind":"satellite","owner":"Commercial GEO","orbitClass":"GEO"},{"id":"37826","name":"QUETZSAT 1","line1":"1 37826U 11054A   26165.45958332 -.00000234  00000+0  00000+0 0  9994","line2":"2 37826   0.0169  26.5999 0002500  58.7811 265.8351  1.00270976 49848","kind":"satellite","orbitClass":"GEO"},{"id":"37834","name":"INTELSAT 18 (IS-18)","line1":"1 37834U 11056A   26165.43918064  .00000061  00000+0  00000+0 0  9998","line2":"2 37834   0.0172 293.8107 0001647 143.5188 163.5143  1.00273358 53780","kind":"satellite","owner":"Commercial GEO","orbitClass":"GEO"},{"id":"37836","name":"EUTELSAT 16A","line1":"1 37836U 11057A   26165.33543080  .00000112  00000+0  00000+0 0  9999","line2":"2 37836   0.0446  12.7853 0005965  73.5212 313.0773  1.00273183  7303","kind":"satellite","owner":"Commercial GEO","orbitClass":"GEO"},{"id":"37843","name":"VIASAT-1","line1":"1 37843U 11059A   26165.38074573 -.00000015  00000+0  00000+0 0  9993","line2":"2 37843   0.0179 334.4225 0002031 112.6509 197.5716  1.00269024 47299","kind":"satellite","orbitClass":"GEO"},{"id":"37933","name":"ASIASAT 7","line1":"1 37933U 11069A   26165.49577081 -.00000327  00000+0  00000+0 0  9994","line2":"2 37933   0.0242  68.9402 0001216 345.1941 132.6475  1.00272955 44839","kind":"satellite","orbitClass":"GEO"},{"id":"37948","name":"BEIDOU-2 IGSO-5","line1":"1 37948U 11073A   26164.78949546 -.00000164  00000+0  00000+0 0  9994","line2":"2 37948  47.6849 271.5886 0113838 221.6054 144.8748  1.00273385 53106","kind":"satellite","owner":"China","orbitClass":"GEO"},{"id":"37951","name":"LUCH-5A","line1":"1 37951U 11074B   26164.50986266 -.00000046  00000+0  00000+0 0  9998","line2":"2 37951   8.7444  73.8614 0002177  24.6507 153.8242  1.00269799 53011","kind":"satellite","orbitClass":"GEO"},{"id":"38014","name":"NIGCOMSAT 1R","line1":"1 38014U 11077A   26165.26937984  .00000153  00000+0  00000+0 0  9997","line2":"2 38014   0.0462 136.9866 0002347 210.1662  54.9104  1.00273992 52927","kind":"satellite","orbitClass":"GEO"},{"id":"38070","name":"WGS F4 (USA 233)","line1":"1 38070U 12003A   26165.49217014  .00000000  00000+0  00000+0 0  9990","line2":"2 38070   0.0239   9.9904 0000811 275.3742 243.0167  1.00269000 44127","kind":"satellite","orbitClass":"GEO"},{"id":"38087","name":"SES-4","line1":"1 38087U 12007A   26165.47041670 -.00000161  00000+0  00000+0 0  9992","line2":"2 38087   0.0234  29.3118 0002674  64.6568 316.1532  1.00270368 52190","kind":"satellite","owner":"Commercial GEO","orbitClass":"GEO"},{"id":"38091","name":"BEIDOU-2 G5","line1":"1 38091U 12008A   26165.48645013  .00000062  00000+0  00000+0 0  9999","line2":"2 38091   3.5657  69.7122 0009141 273.0876 153.7613  1.00271091 52345","kind":"satellite","owner":"China","orbitClass":"GEO"},{"id":"38093","name":"MUOS-1","line1":"1 38093U 12009A   26165.50113971 -.00000124  00000+0  00000+0 0  9998","line2":"2 38093   5.4708  47.1578 0058704   1.6424 294.4159  1.00270257 52412","kind":"satellite","orbitClass":"GEO"},{"id":"38098","name":"INTELSAT 22 (IS-22)","line1":"1 38098U 12011A   26165.55453045  .00000000  00000+0  00000+0 0  9992","line2":"2 38098   0.0398  52.0363 0001592  46.2017  76.3269  1.00271252  7163","kind":"satellite","owner":"Commercial GEO","orbitClass":"GEO"},{"id":"38107","name":"APSTAR-7","line1":"1 38107U 12013A   26165.49000347  .00000000  00000+0  00000+0 0  9991","line2":"2 38107   0.0220   1.1886 0002550  94.1199  60.3730  1.00271611 51783","kind":"satellite","orbitClass":"GEO"},{"id":"38245","name":"YAHSAT 1B","line1":"1 38245U 12016A   26165.48428345  .00000134  00000+0  00000+0 0  9996","line2":"2 38245   0.0918  90.2423 0002354  11.6779  22.7946  1.00270395 45586","kind":"satellite","orbitClass":"GEO"},{"id":"38254","name":"AEHF-2 (USA 235)","line1":"1 38254U 12019A   26165.04378089 -.00000132  00000+0  00000+0 0  9999","line2":"2 38254   6.6438  57.5122 0002381  16.4466 187.6027  1.00270003  6958","kind":"satellite","orbitClass":"GEO"},{"id":"38331","name":"JCSAT-13","line1":"1 38331U 12023A   26165.49938380 -.00000349  00000+0  00000+0 0  9995","line2":"2 38331   0.0176 359.2381 0002987 111.9091  95.4320  1.00269807 51511","kind":"satellite","orbitClass":"GEO"},{"id":"38332","name":"VINASAT-2","line1":"1 38332U 12023B   26165.52197633 -.00000321  00000+0  00000+0 0  9998","line2":"2 38332   0.0161   8.4474 0002082  84.2123 129.9259  1.00271658 46634","kind":"satellite","orbitClass":"GEO"},{"id":"38342","name":"NIMIQ 6","line1":"1 38342U 12026A   26165.45680999 -.00000166  00000+0  00000+0 0  9993","line2":"2 38342   0.0222 298.1059 0002440 145.0172 252.9841  1.00270544 50382","kind":"satellite","orbitClass":"GEO"},{"id":"38352","name":"ZHONGXING-2A","line1":"1 38352U 12028A   26165.42295260 -.00000286  00000+0  00000+0 0  9999","line2":"2 38352   1.4458  83.9232 0003789  44.7889  24.5229  1.00271308 51270","kind":"satellite","orbitClass":"GEO"},{"id":"38356","name":"INTELSAT 19 (IS-19)","line1":"1 38356U 12030A   26165.50770382 -.00000049  00000+0  00000+0 0  9995","line2":"2 38356   0.0173 339.3923 0002783 112.1310 160.0537  1.00270945 50420","kind":"satellite","owner":"Commercial GEO","orbitClass":"GEO"},{"id":"38551","name":"ECHOSTAR 17","line1":"1 38551U 12035A   26165.50670014  .00000000  00000+0  00000+0 0  9994","line2":"2 38551   0.0260  10.3375 0002072  74.1447 253.6369  1.00271396 51031","kind":"satellite","orbitClass":"GEO"},{"id":"38552","name":"METEOSAT-10 (MSG-3)","line1":"1 38552U 12035B   26165.33231080  .00000000  00000+0  00000+0 0  9992","line2":"2 38552   4.6648  61.0321 0001424 327.8422 353.7007  1.00276282 50823","kind":"satellite","orbitClass":"GEO"},{"id":"38652","name":"SES-5","line1":"1 38652U 12036A   26165.33317747  .00000041  00000+0  00000+0 0  9994","line2":"2 38652   0.0491 313.1035 0001724 125.3552 309.0952  1.00268156 44424","kind":"satellite","owner":"Commercial GEO","orbitClass":"GEO"},{"id":"38740","name":"INTELSAT 20 (IS-20)","line1":"1 38740U 12043A   26165.48844345 -.00000017  00000+0  00000+0 0  9999","line2":"2 38740   0.0033  60.8784 0001651 116.2799 329.9816  1.00269404 50729","kind":"satellite","owner":"Commercial GEO","orbitClass":"GEO"},{"id":"38741","name":"HYLAS 2","line1":"1 38741U 12043B   26165.46045000 -.00000252  00000+0  00000+0 0  9990","line2":"2 38741   2.4202  81.0999 0002397  26.2660 248.5932  1.00270303 50749","kind":"satellite","orbitClass":"GEO"}